GOMX-4A                 
1 43197U 18015F   19075.82056988  .00000393  00000-0  19156-4 0  9998
2 43197  97.3753 204.7993 0017333 280.5973 232.8152 15.23929953 62059
1KUNS-PF                
1 43466U 98067NP  19075.44056465  .00017255  00000-0  19472-3 0  9995
2 43466  51.6379  91.6135 0001678  62.5582 297.5582 15.62608137 48167
UBAKUSAT                
1 43467U 98067NQ  19075.28455564  .00010465  00000-0  13046-3 0  9998
2 43467  51.6376  94.3164 0003388  66.1774 293.9574 15.60521093 48120
BATSU-CS1 (IRAZU)       
1 43468U 98067NR  19075.49926472  .00021456  00000-0  22578-3 0  9995
2 43468  51.6374  89.7490 0001794  58.3463 301.7707 15.64236313148181
CUBERRT                 
1 43546U 98067NU  19075.51273095  .00011848  00000-0  14390-3 0  9998
2 43546  51.6379  95.0823 0005424 125.1835 234.9667 15.61052221 38263
TEMPEST-D               
1 43547U 98067NV  19075.65778494  .00003935  00000-0  60601-4 0  9992
2 43547  51.6383  97.5469 0006071 126.7957 233.3592 15.56815294 37926
RAINCUBE                
1 43548U 98067NW  19075.57776264  .00010821  00000-0  14208-3 0  9990
2 43548  51.6371  96.2611 0005685 131.1531 228.9953 15.59092545 38388
HALOSAT                 
1 43549U 98067NX  19075.45040415  .00011116  00000-0  14589-3 0  9990
2 43549  51.6375  96.9143 0005485 134.2628 225.8815 15.59069909 37929
ENDUROSAT ONE           
1 43551U 98067NZ  19075.86943409  .00014734  00000-0  18394-3 0  9990
2 43551  51.6382  93.7159 0005721 141.9313 218.2085 15.60096323 38413
EQUISAT                 
1 43552U 98067PA  19075.27816542  .00011004  00000-0  14297-3 0  9998
2 43552  51.6391  97.2744 0006135 141.0731 219.0704 15.59350557 38279
AEROCUBE 12A            
1 43556U 18046C   19075.63746554  .00000483  00000-0  29982-4 0  9993
2 43556  51.6423 147.7169 0009007  93.5772 266.6238 15.28394385 37179
AEROCUBE 12B            
1 43557U 18046D   19075.57880268  .00000390  00000-0  26712-4 0  9993
2 43557  51.6427 148.0729 0009031  93.4854 266.7158 15.28307814 37114
UITMSAT-1               
1 43589U 98067PD  19075.27993549  .00012149  00000-0  15809-3 0  9992
2 43589  51.6366  98.0133 0005246 147.7400 212.3914 15.59196316 34007
MAYA-1                  
1 43590U 98067PE  19075.27630671  .00011929  00000-0  15521-3 0  9994
2 43590  51.6371  97.9912 0005380 148.4362 211.6955 15.59218671 33939
BHUTAN-1                
1 43591U 98067PF  19075.52659483  .00012281  00000-0  15924-3 0  9994
2 43591  51.6383  96.6704 0005492 149.9246 210.2063 15.59278364 33973
SIRIUSSAT-1             
1 43595U 98067PG  19075.91842093  .00013430  00000-0  17769-3 0  9998
2 43595  51.6366  95.5277 0004053 102.4883 257.6563 15.58646815 33209
SIRIUSSAT-2             
1 43596U 98067PH  19075.87494588  .00012931  00000-0  17237-3 0  9991
2 43596  51.6377  96.0095 0004608 105.3419 254.8083 15.58485707 33194
TANUSHA-3               
1 43597U 98067PJ  19075.88169874  .00015016  00000-0  19253-3 0  9997
2 43597  51.6366  95.2622 0003807 113.3196 246.8197 15.59377791 33204
SURFSAT                 
1 43614U 18070B   19075.86215591  .00002699  00000-0  74457-4 0  9990
2 43614  93.0355 324.9342 0014281 315.4304  44.5800 15.37083136 27993
CP7 (DAVE)              
1 43615U 18070C   19075.86397888  .00002517  00000-0  69560-4 0  9999
2 43615  93.0359 324.9359 0014308 314.9980  45.0113 15.37034097 27995
ELFIN-B                 
1 43616U 18070D   19075.90334425  .00003776  00000-0  10280-3 0  9995
2 43616  93.0319 324.8843 0015323 318.2258  41.7825 15.37444640 28007
ELFIN-A                 
1 43617U 18070E   19075.89928182  .00003430  00000-0  93347-4 0  9996
2 43617  93.0371 325.0249 0014276 315.1408  44.8691 15.37479131 28006
CUBEBEL-1 (BSUSAT-1)    
1 43666U 18083E   19075.78591782  .00001055  00000-0  56150-4 0  9996
2 43666  97.5295 100.8722 0016192 148.9348 297.6330 15.17362364 21045
DEBRISSAT-2             
1 43680U 98067PR  19075.95138304  .00017355  00000-0  22116-3 0  9992
2 43680  51.6378  94.9894 0003278 120.6765 239.4577 15.59414824 41952
CICERO 10               
1 43690U 18088A   19075.91892068  .00001242  00000-0  56596-4 0  9996
2 43690  85.0410  20.2250 0014812 182.9277 177.1880 15.19460065 19116
IRVINE01                
1 43693U 18088D   19075.87439370  .00002350  00000-0  10393-3 0  9992
2 43693  85.0383  20.0443 0018733 170.2187 189.9423 15.20947035 19108
PROXIMA I               
1 43694U 18088E   19075.90604225  .00001053  00000-0  45149-4 0  9997
2 43694  85.0354  19.9107 0020066 162.3332 197.8611 15.21204042 19121
PROXIMA II              
1 43696U 18088G   19075.90553094  .00001022  00000-0  43765-4 0  9994
2 43696  85.0354  19.9116 0020101 162.3067 197.8879 15.21209471 19114
FACSAT-1                
1 43721U 18096C   19075.90908024  .00001201  00000-0  49505-4 0  9996
2 43721  97.4692 145.9010 0016782 303.2067  56.7561 15.25979688 16435
CENTAURI-2              
1 43722U 18096D   19075.90127201  .00001783  00000-0  71737-4 0  9994
2 43722  97.4690 145.9113 0016895 303.9690  55.9942 15.26135061 16425
SIRION PATHFINDER-2     
1 43759U 18099B   19075.88807569  .00000473  00000-0  48436-4 0  9991
2 43759  97.7537 148.9855 0012747 273.7448  86.2315 14.95082895 15411
CORVUS-BC 4             
1 43767U 18099K   19075.92624254  .00000055  00000-0  10397-4 0  9994
2 43767  97.7522 148.9147 0010368 276.8191  83.1850 14.94525511 15410
SHIELDS 1               
1 43850U 18104B   19075.63452323  .00000041  00000-0  00000-0 0  9999
2 43850  85.0286 118.6228 0012879 323.5255  36.5228 15.20988595 13722
STF-1                   
1 43852U 18104D   19075.60698722  .00000041  00000-0  00000-0 0  9993
2 43852  85.0337 118.7564 0014166 340.7127  19.3638 15.20394122 13715
LUME 1                  
1 43908U 18111AJ  19075.92185295  .00001143  00000-0  49691-4 0  9991
2 43908  97.2966 343.7044 0020879 326.4718  33.5196 15.24118318 12168
AOBA VELOX-IV           
1 43940U 19003J   19075.77551133  .00001738  00000-0  75230-4 0  9997
2 43940  97.2879 136.4297 0026132  46.7796  94.3290 15.23433756  8788
CATSAT-2                
1 44029U 98067PV  19075.62230238  .00008449  00000-0  13269-3 0  9996
2 44029  51.6391 101.0610 0004801 148.7131 211.4146 15.54551527  6930
DELPHINI                
1 44030U 98067PW  19075.30037785  .00009305  00000-0  14527-3 0  9995
2 44030  51.6387 102.6597 0004485 144.0236 216.1057 15.54574449  6853
UNITE                   
1 44031U 98067PX  19075.88113483  .00007021  00000-0  11220-3 0  9999
2 44031  51.6389  99.7884 0003336 140.1834 219.9402 15.54376816  6949
TECHEDSAT 8             
1 44032U 98067PY  19075.67314956  .00019189  00000-0  28268-3 0  9993
2 44032  51.6386 100.6495 0003120 128.9297 231.1973 15.55429841  6896
CATSAT-1                
1 44033U 98067PZ  19075.30072060  .00007838  00000-0  12367-3 0  9992
2 44033  51.6392 102.6633 0004692 147.5015 212.6265 15.54540210  6790
